#dP2020  9  6  0  0  0.00000000      96 __u+U ITR00 FIT  IAC
## 2122      0.00000000   900.00000000 59098 0.0000000000000
+  116   C01C02C03C04C05C06C07C08C09C10C11C12C13C14C16C19C20
+        C21C22C23C24C25C26C27C28C29C30C32C33C34C35C36C37C44
+        C45C46C60E01E02E03E04E05E07E08E09E11E12E13E14E15E18
+        E19E21E24E25E26E27E30E31E33E36G01G02G03G04G05G06G07
+        G08G09G10G11G12G13G15G16G17G18G19G20G21G22G24G25G26
+        G27G28G29G30G31G32J01J02J03R01R02R03R04R05R07R08R11
+        R12R13R14R15R16R17R18R19R20R21R22R23R24R26  0  0  0
++        12 12 12 12 12  8  8  8  8  8  8  8  8  8  8  7  8
++         8  7  8  8  8  8  7  8  7  7  8  8  8  8  8  8 10
++         9  9  0  4  4  4  4  4  4  4  4  5  5  4  4  5  4
++         4  4  5  4  4  5  5  5  4  5  3  3  3  3  3  3  3
++         4  3  3  4  3  4  4  4  3  3  3  4  4  3  3  3  3
++         3  3  3  3  3  3  8  8  8  6  5  5  5  5  5  5  5
++         6  6  5  6  6  5  5  6  7  6  6  5  5  8  0  0  0
%c M  cc GPS ccc cccc cccc cccc cccc ccccc ccccc ccccc ccccc
%c cc cc ccc ccc cccc cccc cccc cccc ccccc ccccc ccccc ccccc
%f  0.0000000  0.000000000  0.00000000000  0.000000000000000
%f  0.0000000  0.000000000  0.00000000000  0.000000000000000
%i    0    0    0    0      0      0      0      0         0
%i    0    0    0    0      0      0      0      0         0
/* INFORMATION & ANALYSIS CENTER (IAC)            RAPID DATA
/* S/V CLOCKS ARE ALIGNED TO GNSS TIME                      
/* G:C1WC2W R:C1PC2P E:C1XC5X C:C2IC6I J:C1CC2S             
/* PCV:IGS14_2118 OL/AL:FES2004  NONE     YN ORB:CoN CLK:CoN
*  2020 09 06 11 30  0.00000000
PC01 -34386.361172  24407.507675     42.506091   -163.538718
PC02   4477.835109  41930.020815    372.488048    855.866013
PC03 -14715.614098  39542.963362   -447.530688    797.722415
PC04 -39629.999088  14439.676163   -687.467009    257.924215
PC05  21880.270416  36035.148012    652.979317   -194.992091
PC06 -12426.442406  21616.844724  34395.796942    236.502319
PC07 -24360.902354  32872.912921 -11004.666023     11.410807
PC08  -8055.359573  35173.463903 -21414.394988   -503.493113
PC09   3161.677863  27275.852002  32357.599786    792.390330
PC10 -12051.955818  34001.678176 -21961.370827   -193.301009
PC11 -24156.960874 -11975.677429  -7259.203769   -603.218149
PC12 -16124.257058 -20230.026016  10543.127871    498.571941
PC13    899.974245  41139.157017  -8380.043852    633.541306
PC14 -23061.396754  -1362.515954 -15673.862860   -261.123474
PC16  -7874.132940  22890.963880  34609.874158   -588.890109
PC19  26060.643019  -6085.614555   7896.781625    536.382653
PC20  17137.118410   7792.644339  20599.731275   -840.358776
PC21   2375.011158 -17573.854376 -21529.200681   -674.054122
PC22  20058.819487 -16743.916948  -9758.427178   -764.884072
PC23 -11676.386600  21675.651471  13156.098898   -857.812024
PC24 -11284.153695 -17800.600627  18304.891270   -731.487694
PC25 -16253.020850   3731.147166  22375.246106   -747.334329
PC26   -895.076980 -27579.877110   4269.177783    820.076947
PC27   7311.828451  20440.014368 -17559.882626    394.311478
PC28 -11323.664606  11279.069939 -22875.680159   -173.607563
PC29  23395.655556   3520.285203  14787.468073    280.104118
PC30  22064.213708  16940.694097  -2321.297091    371.829546
PC32  -2276.502137  17626.394194  21526.137913   -897.038401
PC33 -26041.679374   6179.759971  -7933.724099   -795.532755
PC34 -22255.403454 -16727.313597   1769.877194   -860.984100
PC35  11181.175049 -11546.060413  22810.479852   -667.077295
PC36  16314.448736  -3076.509750 -22395.439726   -927.536694
PC37   -236.318533  27667.390753  -3560.584160   -926.681329
PC44  -7720.277635 -20217.162901  17597.649952   -233.999556
PC45  11505.043949 -21758.466240 -13149.835931    223.744673
PC46  11538.853508  17144.145013 -18721.670120    651.918030
PC60      0.000000      0.000000      0.000000 999999.999999
PE01  19831.921558 -19445.620594 -10219.682299   -935.071675
PE02 -19813.099871  19509.654248  10147.228793    159.668768
PE03 -24165.927113   9560.824961  14183.894975   -339.854693
PE04   5232.095978 -16767.767869 -23821.208324   -601.554919
PE05 -29153.867358  -3348.788326  -3898.177271   -348.408824
PE07  17074.775256  14203.704874  19565.633248   -432.520409
PE08  -4855.725336  16689.703426  23961.535225   6124.531962
PE09 -17306.424701 -13929.977040 -19566.942657   5939.753263
PE11 -15751.095989 -24959.139597  -2230.964154   5312.547432
PE12  -1681.908362 -24700.750937  16214.293291   5619.097807
PE13  15700.238674  25013.989092   1958.322462    403.496383
PE14 -28695.963135  -2272.433180  -8600.818571  -1146.232462
PE15   1973.105077  24749.168800 -16111.080088    853.552470
PE18  24086.525315  11728.342869  -3560.176836  -1252.910277
PE19  25544.569842  -8236.028156 -12479.648690     71.667350
PE21  18703.082290  -1292.361812 -22897.633790   -619.922414
PE24  -6298.758971 -18438.408722  22284.015092   5258.446139
PE25 -18659.336760   1133.244860  22964.982160   -516.205134
PE26  20199.232539  10102.657319  19125.428894   2757.777324
PE27   6671.793421  18061.718126 -22470.238641    139.907915
PE30  -9709.668680  26677.201629  -8370.309715   3606.487356
PE31   9188.936379 -26702.309360   8877.469703   -473.969974
PE33  12909.160055  -9944.952152  24710.993019   -462.972232
PE36 -20201.250713 -10589.388579 -18869.871051    511.056516
PG01  14904.019881   -507.687978  21766.969071     36.036759
PG02 -14156.436352 -19825.694360  -9980.784295   -512.669354
PG03  21547.748895 -10000.301173  11698.322503   -291.378770
PG04  23956.732009  -1026.127501 -11454.396567   -132.907157
PG05 -12942.915442  -8692.837077 -21666.234628    -20.483579
PG06  -5631.823130 -25877.639413   1770.391570   -323.152008
PG07   7955.129928 -18156.093478 -17112.434893   -366.577697
PG08  26024.352647   5907.907491   1009.278830    -47.014691
PG09  15297.492654 -10198.263089 -19229.267058   -281.913217
PG10  -7774.208389  21234.381558  13814.909376   -447.468874
PG11  20834.155327   6563.802375  14393.328340   -171.961294
PG12 -21878.462700   7574.400189  12645.500812     70.824168
PG13 -22109.149200 -13621.553898  -5967.413106     42.708710
PG15 -26519.017291  -3290.054296   1198.265763   -205.546275
PG16  13899.907674   7459.733035 -21650.596492   -205.476741
PG17  -2623.660989 -15961.472957  21503.105680    321.955856
PG18  -7482.900208  19060.328130 -16906.768991    285.004024
PG19 -10451.557183 -16639.696937  17607.471848   -108.539551
PG20 -14862.834207  21762.927040   1890.736554    526.823472
PG21  13636.505406  21695.736685   8367.459574     44.090484
PG22  19783.085419  -3261.155112  17547.405874   -757.202328
PG24 -16608.782391  -2096.510302  20484.367854    -18.204803
PG25 -20011.485170  16948.787944   2964.581006     45.290797
PG26   2998.019724  17572.664744 -19650.143897    274.162530
PG27  21513.854995  12623.594389  -9745.601903   -389.119748
PG28   8052.637855 -20378.426324  15699.712707    681.720536
PG29 -18635.234805   6119.491450 -17973.562911   -188.884923
PG30   1230.234911 -24740.339849  -9226.358389   -296.585322
PG31   6372.859424  25520.589248   -463.908595    -66.954808
PG32   4354.232964  16218.153268  20698.522444    342.773611
PJ01 -29807.338083  27556.109900  16325.730939   -349.415659
PJ02 -31402.745682  25671.078021  16395.446451     -3.313326
PJ03 -25978.566737  16681.703369 -24140.026367     -0.919399
PR01  19835.970387 -11124.065702 -11539.737535     67.171600
PR02   -325.222284 -11074.519108 -22942.378925    444.360135
PR03 -17763.523853  -4265.752673 -17739.672107     21.522754
PR04 -24883.906314   4970.413644  -2552.754713     53.601223
PR05 -18025.917821  11256.866672  14097.463611     57.089288
PR07  18268.420531   3989.374328  17404.285284    -39.910031
PR08  24908.406947  -4886.586583   2662.727933    -54.415427
PR11  12650.613748  -8033.609645 -20604.041941    -36.681415
PR12  10260.689172 -21833.070588  -8279.300149    161.551123
PR13   1899.667980 -23707.248969   9203.791297    -43.482680
PR14  -7539.233230 -11425.103499  21539.099293     55.253619
PR15 -12498.135322   7131.763480  21090.575424    106.976898
PR16  -9628.963864  22283.156735   7625.369781     -6.072950
PR17 -18464.594083 -17413.515013  -2788.251973    355.842648
PR18 -17106.903247  -6374.630584 -17783.809211     48.405825
PR19  -7298.604014   7390.783896 -23301.286100   -110.012062
PR20   8571.129300  19125.661415 -14561.541499   -421.105760
PR21  18608.637376  16990.791169   3836.787851   -150.267811
PR22  16637.748392   5564.304627  18536.844080    -71.624322
PR23   1283.137991 -12941.456339  21933.960046    330.184998
PR24  -9048.694873 -19424.122272  13868.232106     12.308167
PR26   4781.819994  17018.463692 -18365.203004   -362.453260
EOF
